[{"OBJECT_NAME":"STARLINK-31784","OBJECT_ID":"2024-080T","EPOCH":"2026-03-09T23:33:08.214912","MEAN_MOTION":15.27572343,"ECCENTRICITY":0.00013919,"INCLINATION":43.0057,"RA_OF_ASC_NODE":40.0291,"ARG_OF_PERICENTER":262.4539,"MEAN_ANOMALY":97.6155,"EPHEMERIS_TYPE":0,"CLASSIFICATION_TYPE":"U","NORAD_CAT_ID":59618,"ELEMENT_SET_NO":999,"REV_AT_EPOCH":10453,"BSTAR":6.9501051e-5,"MEAN_MOTION_DOT":1.65e-5,"MEAN_MOTION_DDOT":0},{"OBJECT_NAME":"LUR-1","OBJECT_ID":"2024-149AQ","EPOCH":"2026-03-09T19:05:45.284064","MEAN_MOTION":15.28658648,"ECCENTRICITY":0.00027765,"INCLINATION":97.379,"RA_OF_ASC_NODE":148.4255,"ARG_OF_PERICENTER":309.1571,"MEAN_ANOMALY":50.9421,"EPHEMERIS_TYPE":0,"CLASSIFICATION_TYPE":"U","NORAD_CAT_ID":60506,"ELEMENT_SET_NO":999,"REV_AT_EPOCH":8678,"BSTAR":0.0003298462,"MEAN_MOTION_DOT":9.121e-5,"MEAN_MOTION_DDOT":0}]
